NORAD_CAT_ID,OBJECT_NAME,OBJECT_TYPE,EPOCH,MEAN_MOTION,ECCENTRICITY,INCLINATION,RA_OF_ASC_NODE,ARG_OF_PERICENTER,MEAN_ANOMALY,BSTAR,MEAN_MOTION_DOT,MEAN_MOTION_DDOT,TLE_LINE0,TLE_LINE1,TLE_LINE2,SEMIMAJOR_AXIS,PERIOD,APOGEE,PERIGEE,DECAYED
54064.0,STARLINK-5172,PAYLOAD,2023-01-06 17:01:26,15.72913654,0.000259,53.2195,121.3664,28.6449,331.4713,-0.00031133,-0.00043565,0.0,0 STARLINK-5172,1 54064U 22136P   23006.70933874 -.00043565  00000-0 -31133-3 0  9994,2 54064  53.2195 121.3664 0002590  28.6449 331.4713 15.72913654 12804,6728.712,91.55,352.319,348.834,0.0
54064.0,STARLINK-5172,PAYLOAD,2023-01-08 20:51:25,15.73173732,0.0003251,53.2184,110.675,12.4749,347.6352,3.2254e-05,3.902e-05,0.0,0 STARLINK-5172,1 54064U 22136P   23008.86904668  .00003902  00000-0  32254-4 0  9997,2 54064  53.2184 110.6750 0003251  12.4749 347.6352 15.73173732 13140,6727.97,91.535,352.022,347.648,0.0
54064.0,STARLINK-5172,PAYLOAD,2023-01-09 06:00:17,15.73201577,0.0003146,53.2186,108.7891,0.5191,359.5831,-1.1858e-06,-7.9e-06,0.0,0 STARLINK-5172,1 54064U 22136P   23009.25020462 -.00000790  00000-0 -11858-5 0  9994,2 54064  53.2186 108.7891 0003146   0.5191 359.5831 15.73201577 13208,6727.891,91.533,351.872,347.639,0.0
54064.0,STARLINK-5172,PAYLOAD,2023-01-09 07:31:45,15.73213357,0.0003348999999999,53.2186,108.475,10.0488,350.0599,1.0207e-05,8.1e-06,0.0,0 STARLINK-5172,1 54064U 22136P   23009.31372370  .00000810  00000-0  10207-4 0  9996,2 54064  53.2186 108.4750 0003349  10.0488 350.0599 15.73213357 12732,6727.857,91.532,351.975,347.469,0.0
54064.0,STARLINK-5172,PAYLOAD,2023-01-09 15:09:09,15.7321139,0.0004053999999999,53.2189,106.906,12.7753,347.337,3.3445e-05,4.075e-05,0.0,0 STARLINK-5172,1 54064U 22136P   23009.63135901  .00004075  00000-0  33445-4 0  9994,2 54064  53.2189 106.9060 0004054  12.7753 347.3370 15.73211390 13260,6727.863,91.533,352.455,347.0,0.0
54064.0,STARLINK-5172,PAYLOAD,2023-01-10 12:29:51,15.73226355,0.0003741,53.2185,102.5016,9.9713,350.1381,3.769e-06,-9.5e-07,0.0,0 STARLINK-5172,1 54064U 22136P   23010.52073960 -.00000095  00000-0  37690-5 0  9996,2 54064  53.2185 102.5016 0003741   9.9713 350.1381 15.73226355 12928,6727.82,91.532,352.202,347.168,0.0
54064.0,STARLINK-5172,PAYLOAD,2023-01-10 15:32:49,15.73226498,0.0003751,53.2183,101.8722,10.4269,349.6828,4.261e-06,-2.6e-07,0.0,0 STARLINK-5172,1 54064U 22136P   23010.64779331 -.00000026  00000-0  42610-5 0  9996,2 54064  53.2183 101.8722 0003751  10.4269 349.6828 15.73226498 13429,6727.82,91.532,352.208,347.161,0.0
54064.0,STARLINK-5172,PAYLOAD,2023-01-11 12:53:33,15.73207821,0.0004078,53.2182,97.4719,10.1675,349.9427,-2.3926e-05,-3.984e-05,0.0,0 STARLINK-5172,1 54064U 22136P   23011.53719707 -.00003984  00000-0 -23926-4 0  9991,2 54064  53.2182  97.4719 0004078  10.1675 349.9427 15.73207821 13567,6727.873000000001,91.533,352.482,346.994,0.0
54064.0,STARLINK-5172,PAYLOAD,2023-01-12 16:20:11,15.73203593,0.0004151,53.218,91.813,8.6151,351.4939,-1.1944e-05,-2.302e-05,0.0,0 STARLINK-5172,1 54064U 22136P   23012.68068909 -.00002302  00000-0 -11944-4 0  9999,2 54064  53.2180  91.8130 0004151   8.6151 351.4939 15.73203593 13741,6727.885,91.533,352.543,346.957,0.0
54064.0,STARLINK-5172,PAYLOAD,2023-01-12 22:26:08,15.73185263,0.0003923,53.2181,90.5555,9.5411,350.5683,-2.875e-05,-4.656e-05,0.0,0 STARLINK-5172,1 54064U 22136P   23012.93481774 -.00004656  00000-0 -28750-4 0  9993,2 54064  53.2181  90.5555 0003923   9.5411 350.5683 15.73185263 13787,6727.937,91.534,352.44199999999995,347.163,0.0
54064.0,STARLINK-5172,PAYLOAD,2023-01-13 13:40:57,15.7316751,0.000412,53.2185,87.411,15.1713,344.94300000000004,-1.2052e-05,-2.314e-05,0.0,0 STARLINK-5172,1 54064U 22136P   23013.57011531 -.00002314  00000-0 -12052-4 0  9991,2 54064  53.2185  87.4110 0004120  15.1713 344.9430 15.73167510 13884,6727.988,91.535,352.625,347.081,0.0
54064.0,STARLINK-5172,PAYLOAD,2023-01-14 04:55:44,15.7319011,0.0003953,53.218,84.2684,13.2194,346.8929,9.1793e-06,6.64e-06,0.0,0 STARLINK-5172,1 54064U 22136P   23014.20537785  .00000664  00000-0  91793-5 0  9990,2 54064  53.2180  84.2684 0003953  13.2194 346.8929 15.73190110 13982,6727.923000000001,91.534,352.44800000000004,347.129,0.0
54064.0,STARLINK-5172,PAYLOAD,2023-01-15 05:19:26,15.73186602,0.0003638999999999,53.2183,79.2399,20.0919,340.0243,2.3217e-05,2.635e-05,0.0,0 STARLINK-5172,1 54064U 22136P   23015.22183500  .00002635  00000-0  23217-4 0  9990,2 54064  53.2183  79.2399 0003639  20.0919 340.0243 15.73186602 14149,6727.933000000001,91.534,352.247,347.35,0.0
54064.0,STARLINK-5172,PAYLOAD,2023-01-16 07:14:36,15.73204739,0.0003502,53.2186,73.8957,26.9925,333.1276,1.249e-05,1.13e-05,0.0,0 STARLINK-5172,1 54064U 22136P   23016.30180779  .00001130  00000-0  12490-4 0  9995,2 54064  53.2186  73.8957 0003502  26.9925 333.1276 15.73204739 14313,6727.882,91.533,352.103,347.391,0.0
54064.0,STARLINK-5172,PAYLOAD,2023-01-16 10:17:34,15.73198514,0.0002504999999999,53.2174,73.2639,32.2466,327.8706,6.8589e-07,-5.26e-06,0.0,0 STARLINK-5172,1 54064U 22136P   23016.42886598 -.00000526  00000-0  68589-6 0  9991,2 54064  53.2174  73.2639 0002505  32.2466 327.8706 15.73198514 13852,6727.899,91.533,351.45,348.079,0.0
54064.0,STARLINK-5172,PAYLOAD,2023-01-16 20:57:56,15.73190541,0.0002266999999999,53.2184,71.0662,28.3942,331.7202,-4.6254e-06,-1.27e-05,0.0,0 STARLINK-5172,1 54064U 22136P   23016.87357586 -.00001270  00000-0 -46254-5 0  9992,2 54064  53.2184  71.0662 0002267  28.3942 331.7202 15.73190541 14404,6727.922,91.534,351.31199999999995,348.26199999999994,0.0
54064.0,STARLINK-5172,PAYLOAD,2023-01-17 12:12:43,15.73209703,0.0002327,53.2166,67.922,35.5682,324.5492,7.5415e-06,4.37e-06,0.0,0 STARLINK-5172,1 54064U 22136P   23017.50883777  .00000437  00000-0  75415-5 0  9992,2 54064  53.2166  67.9220 0002327  35.5682 324.5492 15.73209703 14509,6727.868,91.533,351.298,348.167,0.0
54064.0,STARLINK-5172,PAYLOAD,2023-01-18 09:33:26,15.73203378,0.0001588,53.2179,63.5197,60.3892,299.7286,1.9208e-05,2.076e-05,0.0,0 STARLINK-5172,1 54064U 22136P   23018.39822492  .00002076  00000-0  19208-4 0  9995,2 54064  53.2179  63.5197 0001588  60.3892 299.7286 15.73203378 14163,6727.886,91.533,350.819,348.682,0.0
54064.0,STARLINK-5172,PAYLOAD,2023-01-18 20:13:48,15.7320676,0.0001559,53.2179,61.3196,58.1779,301.9392,8.583200000000001e-06,5.85e-06,0.0,0 STARLINK-5172,1 54064U 22136P   23018.84292079  .00000585  00000-0  85832-5 0  9997,2 54064  53.2179  61.3196 0001559  58.1779 301.9392 15.73206760 14718,6727.876,91.533,350.79,348.69199999999995,0.0
54064.0,STARLINK-5172,PAYLOAD,2023-01-19 11:28:37,15.73205382,0.0001423,53.2176,58.1753,69.2088,290.9084,-4.5701e-06,-1.262e-05,0.0,0 STARLINK-5172,1 54064U 22136P   23019.47820668 -.00001262  00000-0 -45701-5 0  9994,2 54064  53.2176  58.1753 0001423  69.2088 290.9084 15.73205382 14819,6727.88,91.533,350.702,348.787,0.0
54064.0,STARLINK-5172,PAYLOAD,2023-01-19 19:06:01,15.73196319,0.0001534,53.2171,56.6026,60.8806,299.2367,-4.2403e-06,-1.215e-05,0.0,0 STARLINK-5172,1 54064U 22136P   23019.79585297 -.00001215  00000-0 -42403-5 0  9999,2 54064  53.2171  56.6026 0001534  60.8806 299.2367 15.73196319 14868,6727.906,91.533,350.80300000000005,348.73900000000003,0.0
54064.0,STARLINK-5172,PAYLOAD,2023-01-20 02:43:23,15.73221779,0.0001163,53.2178,55.0319,71.5981,288.5165,1.5989000000000002e-05,1.627e-05,0.0,0 STARLINK-5172,1 54064U 22136P   23020.11346903  .00001627  00000-0  15989-4 0  9999,2 54064  53.2178  55.0319 0001163  71.5981 288.5165 15.73221779 14916,6727.8330000000005,91.532,350.481,348.916,0.0
54064.0,STARLINK-5172,PAYLOAD,2023-01-20 08:49:20,15.73205805,0.0001181,53.2179,53.7741,82.0272,278.0882,2.0845e-07,-5.9e-06,0.0,0 STARLINK-5172,1 54064U 22136P   23020.36759301 -.00000590  00000-0  20845-6 0  9994,2 54064  53.2179  53.7741 0001181  82.0272 278.0882 15.73205805 14957,6727.879,91.533,350.538,348.949,0.0
54064.0,STARLINK-5172,PAYLOAD,2023-01-21 06:10:04,15.73187925,0.0001699,53.2169,49.3725,44.5114,315.6043,-1.6072999999999998e-06,-8.46e-06,0.0,0 STARLINK-5172,1 54064U 22136P   23021.25699830 -.00000846  00000-0 -16073-5 0  9995,2 54064  53.2169  49.3725 0001699  44.5114 315.6043 15.73187925 15096,6727.93,91.534,350.93800000000005,348.652,0.0
54064.0,STARLINK-5172,PAYLOAD,2023-01-21 10:44:30,15.73200944,0.0001526,53.2172,48.4286,78.54,281.5791,6.6599e-06,3.14e-06,0.0,0 STARLINK-5172,1 54064U 22136P   23021.44757119  .00000314  00000-0  66599-5 0  9997,2 54064  53.2172  48.4286 0001526  78.5400 281.5791 15.73200944 15128,6727.892,91.533,350.784,348.731,0.0
54064.0,STARLINK-5172,PAYLOAD,2023-01-22 11:08:12,15.73186517,0.0001182,53.2173,43.3975,97.4004,262.7151,-1.3575e-05,-2.523e-05,0.0,0 STARLINK-5172,1 54064U 22136P   23022.46402838 -.00002523  00000-0 -13575-4 0  9996,2 54064  53.2173  43.3975 0001182  97.4004 262.7151 15.73186517 15283,6727.934,91.534,350.594,349.00300000000004,0.0
54064.0,STARLINK-5172,PAYLOAD,2023-01-22 18:45:35,15.73199467,0.0001192,53.2171,41.8276,103.3956,256.7197,-5.894199999999999e-06,-1.447e-05,0.0,0 STARLINK-5172,1 54064U 22136P   23022.78165864 -.00001447  00000-0 -58942-5 0  9998,2 54064  53.2171  41.8276 0001192 103.3956 256.7197 15.73199467 15339,6727.897,91.533,350.564,348.96,0.0
54064.0,STARLINK-5172,PAYLOAD,2023-01-23 00:51:29,15.73207723,3.4899999999999995e-05,53.2177,40.5701,91.7011,268.4049,-1.8393e-06,-8.76e-06,0.0,0 STARLINK-5172,1 54064U 22136P   23023.03576228 -.00000876  00000-0 -18393-5 0  9998,2 54064  53.2177  40.5701 0000349  91.7011 268.4049 15.73207723 15374,6727.8730000000005,91.533,349.973,349.50300000000004,0.0
54064.0,STARLINK-5172,PAYLOAD,2023-01-24 05:49:37,15.73210565,0.0001408,53.2171,34.5942,108.2795,251.8378,8.903e-06,6.3e-06,0.0,0 STARLINK-5172,1 54064U 22136P   23024.24278979  .00000630  00000-0  89030-5 0  9996,2 54064  53.2171  34.5942 0001408 108.2795 251.8378 15.73210565 15568,6727.865,91.533,350.677,348.783,0.0
